#aV2006 12 29  0  0   .00000000      96 DD+AD WGS84 FIT  NGA
## 1407 432000.00000000   900.00000000 54098  .0000000000000
+   30     1  2  3  4  5  6  7  8  9 10 11 12 13 14 16 17 18
+         19 20 21 22 23 24 25 26 27 28 29 30 31  0  0  0  0
+          0  0  0  0  0  0  0  0  0  0  0  0  0  0  0  0  0
+          0  0  0  0  0  0  0  0  0  0  0  0  0  0  0  0  0
+          0  0  0  0  0  0  0  0  0  0  0  0  0  0  0  0  0
++         0  0  0  0  0  0  0  0  0  0  0  0  0  0  0  0  0
++         0  0  0  0  0  0  0  0  0  0  0  0  0  0  0  0  0
++         0  0  0  0  0  0  0  0  0  0  0  0  0  0  0  0  0
++         0  0  0  0  0  0  0  0  0  0  0  0  0  0  0  0  0
++         0  0  0  0  0  0  0  0  0  0  0  0  0  0  0  0  0
%c cc cc ccc ccc cccc cccc cccc cccc ccccc ccccc ccccc ccccc
%c cc cc ccc ccc cccc cccc cccc cccc ccccc ccccc ccccc ccccc
%f  0.0000000  0.000000000  0.00000000000  0.000000000000000
%f  0.0000000  0.000000000  0.00000000000  0.000000000000000
%i    0    0    0    0      0      0      0      0         0
%i    0    0    0    0      0      0      0      0         0
/*      NGA, ST. LOUIS,MO.                                  
/*   EPHEMERIS COMPUTED FROM  3 DAYS OF DATA                
/* CCCCCCCCCCCCCCCCCCCCCCCCCCCCCCCCCCCCCCCCCCCCCCCCCCCCCCCCC
/* CCCCCCCCCCCCCCCCCCCCCCCCCCCCCCCCCCCCCCCCCCCCCCCCCCCCCCCCC
*  2006 12 29 13  0   .00000000                                                 
P  1  13825.462066  -5516.915509 -21782.463308     98.211608                    
V  1   3230.429388  27904.281556  -5030.524107       .023763                    
P  2 -22672.508605  11868.957117  -6848.930647     68.408839                    
V  2   4591.025315  -7806.017487 -29995.072027       .034978                    
P  3  13334.285692 -10032.718487  20406.557466    499.773023                    
V  3   7537.394307  25503.214243   7865.686512      1.033255                    
P  4 -20641.966904    507.282730 -16961.820712    350.334709                    
V  4  15813.223547 -14418.336035 -19380.096210       .030770                    
P  5  -2005.808533  15812.829163 -21487.918302    450.907618                    
V  5 -25765.037684  -7441.247750  -2954.136125       .176445                    
P  6   7054.601745  25407.150348   3112.625549    485.462280                    
V  6  -2941.198227   4362.939366 -30830.565108      -.203169                    
P  7  11223.593120  22585.213717   8516.859818    461.238977                    
V  7  -1110.764444  10880.223701 -28647.680445      -.100979                    
P  8 -13530.812213  -8014.863678  21347.735186    -91.398533                    
V  8  21871.124415 -16300.404433   7275.597899      -.014006                    
P  9 -12998.125124  20777.109269 -10504.296027     50.850632                    
V  9 -11122.325360   6347.015152  28089.814929       .016113                    
P 10 -20109.979688   4087.890732  16937.270809     95.077832                    
V 10 -19308.071837  -9674.642478 -20153.683202       .006047                    
P 11   9184.906311 -22505.653074 -10464.801140      1.488010                    
V 11  12278.357734  -6947.604793  26239.303232       .015111                    
P 12  -2992.697878  15027.685130 -21593.029158    -74.595836                    
V 12 -25869.884235  -9802.174125  -3184.687712       .083224                    
P 13  -6609.807814 -25114.973482   5590.266252    127.283398                    
V 13    849.454910  -7331.099556 -31390.896453       .039162                    
P 14  14110.487230  12356.331924 -18751.663150      3.070189                    
V 14   2100.899062  23824.047645  17134.168921       .011477                    
P 16  23093.087724   -567.447336  13296.608376    106.848325                    
V 16  14680.633501   8233.661212 -25173.119954       .039370                    
P 17 -14823.696203 -12147.776359 -18445.034310     84.473735                    
V 17  -1912.061289 -23336.090642  16797.504567      -.014461                    
P 18  16397.321660  17006.948149  12585.533485   -253.748649                    
V 18 -15200.514355  -4358.536951  25650.374593      -.001581                    
P 19   9302.692139 -19470.994113  15519.532357     50.339098                    
V 19   3742.156581  19333.738181  22237.292818       .044078                    
P 20   -184.426738 -16128.322903 -21197.985333    -21.880816                    
V 20  25195.307525   8924.708231  -6999.310994      -.000560                    
P 21   8291.932104  13340.602025  21488.217727     66.699921                    
V 21 -22090.009853  15825.452929  -1859.373823       .012685                    
P 22  23723.785527  11893.173629   1480.719574    158.798457                    
V 22  -2793.985783   2077.350520  31491.844192       .024992                    
P 23    158.047451 -25833.540707  -5793.194354    144.198054                    
V 23   3644.015176   6823.798970 -30932.924954       .011911                    
P 24 -20836.791832  16661.395910   2061.013769     64.084218                    
V 24  -3436.788423   -759.563214 -31339.210105       .031758                    
P 25  21566.934802  -8043.894688 -12989.423526    395.736927                    
V 25 -10705.336618  13538.842769 -25212.246601      -.076485                    
P 26  -8702.235101  18278.673896  16459.357113    -69.359153                    
V 26  -4216.891025 -21514.673974  21693.170309      -.172975                    
P 27  -5473.280616 -15318.364830  21584.610607     85.733627                    
V 27  19780.909789 -16872.179061  -7452.496173       .020046                    
P 28 -22343.570500 -13681.714881   5703.956095     10.826452                    
V 28   7172.585971    425.214663  30440.114559      -.008728                    
P 29 -10871.262064  14390.152498  19603.688368    287.952379                    
V 29  -4726.177777 -24009.687920  15502.000609       .197528                    
P 30  10265.723933  17224.050231 -17775.981774     20.957860                    
V 30 -21312.800731  -5654.112456 -17987.649414       .011569                    
P 31  21529.719945  -3917.492277 -14886.731424    -12.765119                    
V 31 -13704.014455  13656.375704 -23062.463711       .065261                    
EOF
